GSAT0216 (GALILEO 20)   
1 43056U 17079B   26204.08810596  .00000074  00000+0  00000+0 0  9992
2 43056  55.0662 220.5182 0004973 278.6022  81.3894  1.70474558 53613
GSAT0217 (GALILEO 21)   
1 43057U 17079C   26204.30891541  .00000075  00000+0  00000+0 0  9998
2 43057  55.0645 220.5097 0004235 291.1751  68.8281  1.70474489 53602
GSAT0218 (GALILEO 22)   
1 43058U 17079D   26203.35582479  .00000071  00000+0  00000+0 0  9996
2 43058  55.0649 220.5336 0005428 275.3453  84.6382  1.70474503 53617
BEIDOU-3 M7             
1 43107U 18003A   26204.32690344 -.00000095  00000+0  00000+0 0  9995
2 43107  54.2931 301.0534 0004261 100.7198 259.3628  1.86228147 58025
BEIDOU-3 M8             
1 43108U 18003B   26204.27111213 -.00000095  00000+0  00000+0 0  9993
2 43108  54.2860 301.0370 0003209 257.1440 102.8549  1.86230977 58032
BEIDOU-3 M4             
1 43207U 18018A   26202.02956916 -.00000080  00000+0  00000+0 0  9991
2 43207  56.6812  62.0321 0007144  31.4150 328.6897  1.86231251 57374
BEIDOU-3 M3             
1 43208U 18018B   26202.63302743 -.00000079  00000+0  00000+0 0  9990
2 43208  56.6811  62.0163 0007201 348.0427  12.0023  1.86231119 57385
BEIDOU-3 M9             
1 43245U 18029A   26204.46195111 -.00000090  00000+0  00000+0 0  9998
2 43245  54.1582 298.6782 0001191 192.7785 167.2569  1.86228582 56579
BEIDOU-3 M10            
1 43246U 18029B   26204.39612726 -.00000090  00000+0  00000+0 0  9997
2 43246  54.1564 298.7073 0003150  36.1527 323.9067  1.86229210 56557
IRNSS-1I                
1 43286U 18035A   26202.89458949  .00000062  00000+0  00000+0 0  9994
2 43286  28.8336  73.6540 0018405 179.0574  64.0489  1.00274701 30423
COSMOS 2527 [GLONASS-M] 
1 43508U 18053A   26204.21788319 -.00000046  00000+0  00000+0 0  9999
2 43508  65.5980  72.7056 0006388 226.7485 133.2665  2.13102044 63047
BEIDOU-2 IGSO-7         
1 43539U 18057A   26197.82826650 -.00000084  00000+0  00000+0 0  9998
2 43539  55.1987 162.7987 0104914 237.9691 299.1450  1.00242392 29427
GSAT0221 (GALILEO 25)   
1 43564U 18060A   26203.84656221 -.00000106  00000+0  00000+0 0  9990
2 43564  57.1563 340.8185 0002811 280.1665  79.7963  1.70476368 49770
GSAT0222 (GALILEO 26)   
1 43565U 18060B   26202.89310238 -.00000107  00000+0  00000+0 0  9991
2 43565  57.1601 340.8479 0003036 234.2214 125.7449  1.70476084 49800
GSAT0219 (GALILEO 23)   
1 43566U 18060C   26204.28711375 -.00000106  00000+0  00000+0 0  9993
2 43566  57.1589 340.8118 0001921 290.7871  69.1867  1.70476344 49807
GSAT0220 (GALILEO 24)   
1 43567U 18060D   26203.92155013 -.00000106  00000+0  00000+0 0  9995
2 43567  57.1584 340.8214 0002105 282.3928  77.5781  1.70476338 49783
BEIDOU-3 M5             
1 43581U 18062A   26204.08306147  .00000072  00000+0  00000+0 0  9998
2 43581  54.0866 181.0835 0005581 294.9727  64.9516  1.86228848 54307
BEIDOU-3 M6             
1 43582U 18062B   26203.94669307  .00000073  00000+0  00000+0 0  9994
2 43582  54.0863 181.0774 0005420  11.5674 348.4274  1.86228094 54307
BEIDOU-3 M12            
1 43602U 18067A   26203.88514647  .00000072  00000+0  00000+0 0  9990
2 43602  54.1814 179.8297 0008088  29.8978 330.1292  1.86227663 53784
BEIDOU-3 M11            
1 43603U 18067B   26204.02030808  .00000071  00000+0  00000+0 0  9999
2 43603  54.1790 179.7886 0004747  13.8554 346.1384  1.86227171 53819
BEIDOU-3 M13            
1 43622U 18072A   26203.97493888 -.00000074  00000+0  00000+0 0  9994
2 43622  56.6564  61.4788 0005898 334.7439  25.2913  1.86231140 53329
BEIDOU-3 M14            
1 43623U 18072B   26203.84036028 -.00000075  00000+0  00000+0 0  9991
2 43623  56.6582  61.4777 0005361  12.6892 347.3880  1.86231202 53317
BEIDOU-3 M16            
1 43647U 18078A   26201.84740124 -.00000098  00000+0  00000+0 0  9995
2 43647  54.0571 298.8050 0006516  39.3061 320.7783  1.86232384 52789
BEIDOU-3 M15            
1 43648U 18078B   26204.12445063 -.00000092  00000+0  00000+0 0  9998
2 43648  54.0507 298.7251 0003335  56.6715 303.3981  1.86232544 52847
BEIDOU-3 G1             
1 43683U 18085A   26204.78653134 -.00000106  00000+0  00000+0 0  9993
2 43683   2.9588  96.3840 0008363 357.7120 290.5706  1.00273105 28427
COSMOS 2529 [GLONASS-M] 
1 43687U 18086A   26201.49849141  .00000085  00000+0  00000+0 0  9993
2 43687  64.2975 191.4696 0011976 256.3144 103.5547  2.13101999 59990
BEIDOU-3 M17            
1 43706U 18093A   26204.28387589  .00000071  00000+0  00000+0 0  9991
2 43706  54.1702 181.0718 0009975 295.3478  62.8213  1.86228519 52208
BEIDOU-3 M18            
1 43707U 18093B   26204.15020127  .00000072  00000+0  00000+0 0  9991
2 43707  54.1710 181.0687 0008091 324.9703  34.9587  1.86226747 52206
NAVSTAR 77 (USA 289)    
1 43873U 18109A   26204.16813346 -.00000066  00000+0  00000+0 0  9991
2 43873  55.7035  90.7667 0038863 197.0184 346.6562  2.00563411 55795
BEIDOU-3 IGSO-1         
1 44204U 19023A   26203.44280863 -.00000208  00000+0  00000+0 0  9996
2 44204  58.7457  37.2857 0026194 223.4912 318.1363  1.00281841  7567
BEIDOU-2 G8             
1 44231U 19027A   26204.85476513 -.00000244  00000+0  00000+0 0  9995
2 44231   1.7489  74.5044 0009514 284.3809  34.9127  1.00270019 26444
